{
  "type": "FeatureCollection",
  "features": [
    {
      "type": "Feature",
      "properties": {
        "norad_id": 66676,
        "name": "TRANSPORTER-15 L",
        "group": "last-30-days",
        "lat": 39.567935260429635,
        "lon": -105.38012525356741,
        "alt_km": 511.5204866417462,
        "timestamp": "2025-12-22T20:43:44.564552+00:00",
        "meta_object_name": "TRANSPORTER-15 L",
        "meta_object_id": "2025-276L",
        "meta_epoch": "2025-12-22T12:11:57.805152",
        "meta_mean_motion": 15.17103062,
        "meta_eccentricity": 0.00043168,
        "meta_inclination": 97.4385,
        "meta_ra_of_asc_node": 68.0732,
        "meta_arg_of_pericenter": 236.9713,
        "meta_mean_anomaly": 123.1107,
        "meta_ephemeris_type": 0,
        "meta_classification_type": "U",
        "meta_norad_cat_id": 66676,
        "meta_element_set_no": 999,
        "meta_rev_at_epoch": 360,
        "meta_bstar": 0.0099083836,
        "meta_mean_motion_dot": 0.00201674,
        "meta_mean_motion_ddot": 0,
        "tle_line1": "1 66676U 25276L   25356.50830793  .00201674  00000+0  99084-2 0  9990",
        "tle_line2": "2 66676  97.4385  68.0732 0004316 236.9713 123.1107 15.17103062  3600"
      },
      "geometry": {
        "type": "Point",
        "coordinates": [
          -105.38012525356741,
          39.567935260429635
        ]
      }
    },
    {
      "type": "Feature",
      "properties": {
        "norad_id": 66677,
        "name": "TRANSPORTER-15 M",
        "group": "last-30-days",
        "lat": -13.951037867020121,
        "lon": -113.41748846604878,
        "alt_km": 494.99339799223526,
        "timestamp": "2025-12-22T20:43:44.564562+00:00",
        "meta_object_name": "TRANSPORTER-15 M",
        "meta_object_id": "2025-276M",
        "meta_epoch": "2025-12-22T04:05:27.833856",
        "meta_mean_motion": 15.20048419,
        "meta_eccentricity": 0.00137568,
        "meta_inclination": 97.4387,
        "meta_ra_of_asc_node": 67.7578,
        "meta_arg_of_pericenter": 222.2681,
        "meta_mean_anomaly": 137.7495,
        "meta_ephemeris_type": 0,
        "meta_classification_type": "U",
        "meta_norad_cat_id": 66677,
        "meta_element_set_no": 999,
        "meta_rev_at_epoch": 355,
        "meta_bstar": 0.074518539,
        "meta_mean_motion_dot": 0.01760874,
        "meta_mean_motion_ddot": 0,
        "tle_line1": "1 66677U 25276M   25356.17046104  .01760874  00000+0  74519-1 0  9997",
        "tle_line2": "2 66677  97.4387  67.7578 0013756 222.2681 137.7495 15.20048419  3550"
      },
      "geometry": {
        "type": "Point",
        "coordinates": [
          -113.41748846604878,
          -13.951037867020121
        ]
      }
    },
    {
      "type": "Feature",
      "properties": {
        "norad_id": 66678,
        "name": "TRANSPORTER-15 N",
        "group": "last-30-days",
        "lat": 36.8981209218048,
        "lon": -105.93465603111204,
        "alt_km": 513.5653877643454,
        "timestamp": "2025-12-22T20:43:44.564573+00:00",
        "meta_object_name": "TRANSPORTER-15 N",
        "meta_object_id": "2025-276N",
        "meta_epoch": "2025-12-22T12:11:08.443968",
        "meta_mean_motion": 15.16850831,
        "meta_eccentricity": 0.00046606,
        "meta_inclination": 97.4421,
        "meta_ra_of_asc_node": 68.084,
        "meta_arg_of_pericenter": 248.0815,
        "meta_mean_anomaly": 111.9923,
        "meta_ephemeris_type": 0,
        "meta_classification_type": "U",
        "meta_norad_cat_id": 66678,
        "meta_element_set_no": 999,
        "meta_rev_at_epoch": 360,
        "meta_bstar": 0.00074947246,
        "meta_mean_motion_dot": 0.00014702,
        "meta_mean_motion_ddot": 0,
        "tle_line1": "1 66678U 25276N   25356.50773662  .00014702  00000+0  74947-3 0  9999",
        "tle_line2": "2 66678  97.4421  68.0840 0004660 248.0815 111.9923 15.16850831  3605"
      },
      "geometry": {
        "type": "Point",
        "coordinates": [
          -105.93465603111204,
          36.8981209218048
        ]
      }
    },
    {
      "type": "Feature",
      "properties": {
        "norad_id": 66679,
        "name": "TRANSPORTER-15 P",
        "group": "last-30-days",
        "lat": 34.282191241159815,
        "lon": -106.47270733238298,
        "alt_km": 508.2635414233009,
        "timestamp": "2025-12-22T20:43:44.564583+00:00",
        "meta_object_name": "TRANSPORTER-15 P",
        "meta_object_id": "2025-276P",
        "meta_epoch": "2025-12-21T10:52:32.598048",
        "meta_mean_motion": 15.17590497,
        "meta_eccentricity": 0.00037983,
        "meta_inclination": 97.4397,
        "meta_ra_of_asc_node": 67.0293,
        "meta_arg_of_pericenter": 283.1797,
        "meta_mean_anomaly": 76.9013,
        "meta_ephemeris_type": 0,
        "meta_classification_type": "U",
        "meta_norad_cat_id": 66679,
        "meta_element_set_no": 999,
        "meta_rev_at_epoch": 344,
        "meta_bstar": 0.026256086,
        "meta_mean_motion_dot": 0.0056315,
        "meta_mean_motion_ddot": 0,
        "tle_line1": "1 66679U 25276P   25355.45315507  .00563150  00000+0  26256-1 0  9997",
        "tle_line2": "2 66679  97.4397  67.0293 0003798 283.1797  76.9013 15.17590497  3441"
      },
      "geometry": {
        "type": "Point",
        "coordinates": [
          -106.47270733238298,
          34.282191241159815
        ]
      }
    },
    {
      "type": "Feature",
      "properties": {
        "norad_id": 66680,
        "name": "TRANSPORTER-15 Q",
        "group": "last-30-days",
        "lat": 35.88829935420321,
        "lon": -106.14304691033918,
        "alt_km": 514.1602885059483,
        "timestamp": "2025-12-22T20:43:44.564593+00:00",
        "meta_object_name": "TRANSPORTER-15 Q",
        "meta_object_id": "2025-276Q",
        "meta_epoch": "2025-12-22T12:10:51.454272",
        "meta_mean_motion": 15.16820956,
        "meta_eccentricity": 0.00050172,
        "meta_inclination": 97.4411,
        "meta_ra_of_asc_node": 68.0809,
        "meta_arg_of_pericenter": 253.6476,
        "meta_mean_anomaly": 106.4206,
        "meta_ephemeris_type": 0,
        "meta_classification_type": "U",
        "meta_norad_cat_id": 66680,
        "meta_element_set_no": 999,
        "meta_rev_at_epoch": 360,
        "meta_bstar": 0.00022660344,
        "meta_mean_motion_dot": 4.389e-05,
        "meta_mean_motion_ddot": 0,
        "tle_line1": "1 66680U 25276Q   25356.50753998  .00004389  00000+0  22660-3 0  9997",
        "tle_line2": "2 66680  97.4411  68.0809 0005017 253.6476 106.4206 15.16820956  3602"
      },
      "geometry": {
        "type": "Point",
        "coordinates": [
          -106.14304691033918,
          35.88829935420321
        ]
      }
    },
    {
      "type": "Feature",
      "properties": {
        "norad_id": 66681,
        "name": "TRANSPORTER-15 R",
        "group": "last-30-days",
        "lat": 8.580470546740672,
        "lon": -110.45182204764178,
        "alt_km": 516.3544963588702,
        "timestamp": "2025-12-22T20:43:44.564603+00:00",
        "meta_object_name": "TRANSPORTER-15 R",
        "meta_object_id": "2025-276R",
        "meta_epoch": "2025-12-22T12:03:47.471328",
        "meta_mean_motion": 15.17421029,
        "meta_eccentricity": 0.00050108,
        "meta_inclination": 97.4336,
        "meta_ra_of_asc_node": 68.065,
        "meta_arg_of_pericenter": 276.8715,
        "meta_mean_anomaly": 83.1948,
        "meta_ephemeris_type": 0,
        "meta_classification_type": "U",
        "meta_norad_cat_id": 66681,
        "meta_element_set_no": 999,
        "meta_rev_at_epoch": 360,
        "meta_bstar": 0.00090616369,
        "meta_mean_motion_dot": 0.00018091,
        "meta_mean_motion_ddot": 0,
        "tle_line1": "1 66681U 25276R   25356.50263277  .00018091  00000+0  90616-3 0  9995",
        "tle_line2": "2 66681  97.4336  68.0650 0005010 276.8715  83.1948 15.17421029  3602"
      },
      "geometry": {
        "type": "Point",
        "coordinates": [
          -110.45182204764178,
          8.580470546740672
        ]
      }
    },
    {
      "type": "Feature",
      "properties": {
        "norad_id": 66682,
        "name": "TRANSPORTER-15 S",
        "group": "last-30-days",
        "lat": 20.397722583441993,
        "lon": -108.76271172715282,
        "alt_km": 513.923776198174,
        "timestamp": "2025-12-22T20:43:44.564613+00:00",
        "meta_object_name": "TRANSPORTER-15 S",
        "meta_object_id": "2025-276S",
        "meta_epoch": "2025-12-22T12:06:54.265536",
        "meta_mean_motion": 15.1730041,
        "meta_eccentricity": 0.00051603,
        "meta_inclination": 97.4455,
        "meta_ra_of_asc_node": 68.0972,
        "meta_arg_of_pericenter": 251.742,
        "meta_mean_anomaly": 108.3252,
        "meta_ephemeris_type": 0,
        "meta_classification_type": "U",
        "meta_norad_cat_id": 66682,
        "meta_element_set_no": 999,
        "meta_rev_at_epoch": 360,
        "meta_bstar": 0.0057138451,
        "meta_mean_motion_dot": 0.0011556,
        "meta_mean_motion_ddot": 0,
        "tle_line1": "1 66682U 25276S   25356.50479474  .00115560  00000+0  57138-2 0  9994",
        "tle_line2": "2 66682  97.4455  68.0972 0005160 251.7420 108.3252 15.17300410  3601"
      },
      "geometry": {
        "type": "Point",
        "coordinates": [
          -108.76271172715282,
          20.397722583441993
        ]
      }
    }
  ]
}